OBJECT_NAME,OBJECT_ID,EPOCH,MEAN_MOTION,ECCENTRICITY,INCLINATION,RA_OF_ASC_NODE,ARG_OF_PERICENTER,MEAN_ANOMALY,EPHEMERIS_TYPE,CLASSIFICATION_TYPE,NORAD_CAT_ID,ELEMENT_SET_NO,REV_AT_EPOCH,BSTAR,MEAN_MOTION_DOT,MEAN_MOTION_DDOT
LEMUR-2-ROUNDTRIPPER,2025-009DG,2026-06-16T23:03:22.821120,15.03790338,.0005352,97.7256,250.6401,131.1463,229.0224,0,U,62711,999,7759,.55009E-3,.7502E-4,0
LEMUR-2-MYNAMEISJEFF,2025-009DH,2026-06-17T02:12:43.519104,15.03798680,.0003573,97.7303,251.1525,151.6937,208.4484,0,U,62712,999,7761,.52667E-3,.718E-4,0
LEMUR-2-LEIA-PHILIP,2025-052AN,2026-06-16T22:27:53.667648,14.97319403,.0002528,97.6841,59.8914,210.3683,149.7393,0,U,63246,999,6863,.73534E-4,.795E-5,0
LEMUR-2-LIA-MARTIN,2025-052AQ,2026-06-16T22:35:17.644416,14.97802884,.0002872,97.6897,60.3715,156.9919,203.1432,0,U,63248,999,6864,.25368E-3,.2922E-4,0
LEMUR-2-DELOITTE-1,2025-052BB,2026-06-16T23:37:27.883200,14.97603093,.0003382,97.6922,60.7420,97.5136,262.6470,0,U,63259,999,6866,.33289E-3,.3833E-4,0
LEMUR-2-EMERSONROSE,2025-052BD,2026-06-16T23:01:59.890080,14.99078231,.0001756,97.6885,61.2765,67.6493,292.4916,0,U,63261,999,6870,.24773E-3,.2949E-4,0
LEMUR-2-MARACHE-FRAN,2025-052BE,2026-06-16T22:26:41.577216,15.00100695,.0005407,97.6944,61.5682,23.9465,336.2009,0,U,63262,999,6872,.35663E-3,.4389E-4,0
LEMUR-2-THEFALCONER,2025-052BG,2026-06-17T00:15:24.048000,14.97388271,.0002688,97.6863,60.3894,34.1369,326.0026,0,U,63264,999,6866,.20901E-3,.2371E-4,0
LEMUR-2-UNTITLED-SC,2025-061A,2026-06-16T21:22:06.627072,15.13475001,.0016967,97.5633,143.2542,265.7834,94.1459,0,U,63351,999,6754,.20342E-3,.3584E-4,0
LEMUR-2-ESPERANZA,2025-061B,2026-06-17T04:45:12.612960,15.13571378,.0016495,97.5644,143.6533,263.8128,96.1224,0,U,63352,999,6759,.18185E-3,.3205E-4,0
LEMUR-2-KREMPEL-BRO2,2025-061C,2026-06-16T21:28:11.390592,15.14005099,.0017501,97.5688,143.8848,256.7157,103.2123,0,U,63353,999,6756,.19788E-3,.3538E-4,0
LEMUR-2-THERMORAPTOR,2025-061D,2026-06-16T21:02:23.470656,15.14085449,.0017207,97.5695,143.9426,255.5283,104.4039,0,U,63354,999,6756,.22096E-3,.3967E-4,0
LEMUR-2-NEUROSPICY,2025-061E,2026-06-17T04:17:26.026080,15.14201681,.0014987,97.5624,143.8691,258.1535,101.8015,0,U,63355,999,6761,.16148E-3,.2888E-4,0
LEMUR-2-TILLINFINITY,2025-061F,2026-06-16T21:12:36.152064,15.14786191,.0016359,97.5605,143.8662,246.1342,113.8176,0,U,63356,999,6759,.2193E-3,.4015E-4,0
LEMUR-2-KREMPEL-BRO1,2025-061G,2026-06-17T04:30:01.231200,15.14593506,.0016946,97.5610,144.0844,246.4004,113.5449,0,U,63357,999,6763,.16502E-3,.2988E-4,0
LEMUR-2-LANGER2SPACE,2025-061H,2026-06-17T05:08:11.397120,15.14289674,.0014955,97.5614,143.9249,256.2562,103.7005,0,U,63358,999,6762,.20347E-3,.3666E-4,0
LEMUR-2-BALTO,2025-052BH,2026-06-16T23:40:41.749248,15.00085525,.0006908,97.6898,61.5973,58.2483,301.9413,0,U,63395,999,6873,.40835E-3,.5033E-4,0
LEMUR-2-KRISH,2025-135AK,2026-06-16T20:58:09.568704,14.96207333,.0001766,97.7754,282.7517,99.8626,260.2794,0,U,64561,999,5387,.42605E-3,.4747E-4,0
LEMUR-2-HUBBLE-4,2025-135AP,2026-06-17T01:39:53.438400,14.93197861,.0000965,97.7699,281.9767,308.5326,51.5807,0,U,64565,999,5385,.14733E-3,.1482E-4,0
LEMUR-2-SEJONG-2,2025-135BL,2026-06-17T04:06:33.113376,14.96696334,.0003847,97.7689,283.1920,339.0072,21.0991,0,U,64586,999,5394,.29199E-3,.3276E-4,0
LEMUR-2-HUBBLE-5,2025-135BT,2026-06-16T21:20:58.729632,14.94135511,.0005122,97.7719,282.4325,355.2273,4.8897,0,U,64840,999,5386,.10441E-3,.106E-4,0
LEMUR-2-KARENDARRELL,2025-135BU,2026-06-17T01:14:07.429632,15.00109281,.0009669,97.7684,284.2593,202.5336,157.5464,0,U,64841,999,5399,.5302E-3,.656E-4,0
LEMUR-2-LUCILLE-ROSE,2025-135BV,2026-06-16T13:23:55.180320,15.00148096,.00111845,97.7772,283.7859,285.3047,74.6940,0,U,65403,999,4854,.42863674E-3,.5298E-4,0
LEMUR-2-AFFIE-WAUWIE,2025-248C,2026-06-16T03:21:25.708032,15.27115158,.00075209,45.3895,120.6606,77.2231,282.9498,0,U,66295,999,3443,.50637182E-3,.13448E-3,0
LEMUR-2-DEANANDMAEVE,2025-276N,2026-06-16T17:19:48.488736,15.19728729,.0005777,97.4213,241.2053,16.2444,343.8975,0,U,66678,999,3034,.23971E-3,.5056E-4,0
LEMUR-2-STAS-GORBUK,2025-276W,2026-06-16T22:25:02.923104,15.19380098,.0005109,97.4248,241.4689,16.5545,343.5856,0,U,66686,999,3037,.23131E-3,.4827E-4,0
LEMUR-2-TEODOR,2025-276DG,2026-06-17T02:46:17.465088,15.21049530,.0002137,97.4154,241.8833,117.0255,243.1199,0,U,66768,999,3043,.19479E-3,.4257E-4,0
LEMUR-2-LAILA,2025-276DQ,2026-06-17T02:08:44.750112,15.21270412,.0002233,97.4175,241.9784,135.7171,224.4244,0,U,66776,999,3043,.21779E-3,.4799E-4,0
LEMUR-2-CELIJO-SB-PK,2025-276DW,2026-06-17T02:28:43.211424,14.99975195,.000874,97.5252,238.8839,132.8424,227.3535,0,U,66781,999,2261,.37465E-3,.4603E-4,0
LEMUR-2-FINNIAN,2025-276DX,2026-06-16T22:43:32.109888,15.00376124,.000887,97.5287,238.9457,90.1205,270.1035,0,U,66782,999,1996,.47012E-3,.5853E-4,0
