LEMUR-2-ROUNDTRIPPER    
1 62711U 25009DG  26167.96068080  .00007502  00000+0  55009-3 0  9997
2 62711  97.7256 250.6401 0005352 131.1463 229.0224 15.03790338 77595
LEMUR-2-MYNAMEISJEFF    
1 62712U 25009DH  26168.09217036  .00007180  00000+0  52667-3 0  9999
2 62712  97.7303 251.1525 0003573 151.6937 208.4484 15.03798680 77618
LEMUR-2-LEIA-PHILIP     
1 63246U 25052AN  26167.93603782  .00000795  00000+0  73534-4 0  9991
2 63246  97.6841  59.8914 0002528 210.3683 149.7393 14.97319403 68634
LEMUR-2-LIA-MARTIN      
1 63248U 25052AQ  26167.94117644  .00002922  00000+0  25368-3 0  9996
2 63248  97.6897  60.3715 0002872 156.9919 203.1432 14.97802884 68642
LEMUR-2-DELOITTE-1      
1 63259U 25052BB  26167.98435050  .00003833  00000+0  33289-3 0  9999
2 63259  97.6922  60.7420 0003382  97.5136 262.6470 14.97603093 68663
LEMUR-2-EMERSONROSE     
1 63261U 25052BD  26167.95972095  .00002949  00000+0  24773-3 0  9999
2 63261  97.6885  61.2765 0001756  67.6493 292.4916 14.99078231 68702
LEMUR-2-MARACHE-FRAN    
1 63262U 25052BE  26167.93520344  .00004389  00000+0  35663-3 0  9994
2 63262  97.6944  61.5682 0005407  23.9465 336.2009 15.00100695 68726
LEMUR-2-THEFALCONER     
1 63264U 25052BG  26168.01069500  .00002371  00000+0  20901-3 0  9996
2 63264  97.6863  60.3894 0002688  34.1369 326.0026 14.97388271 68667
LEMUR-2-UNTITLED-SC     
1 63351U 25061A   26167.89035448  .00003584  00000+0  20342-3 0  9998
2 63351  97.5633 143.2542 0016967 265.7834  94.1459 15.13475001 67549
LEMUR-2-ESPERANZA       
1 63352U 25061B   26168.19806265  .00003205  00000+0  18185-3 0  9998
2 63352  97.5644 143.6533 0016495 263.8128  96.1224 15.13571378 67598
LEMUR-2-KREMPEL-BRO2    
1 63353U 25061C   26167.89457628  .00003538  00000+0  19788-3 0  9999
2 63353  97.5688 143.8848 0017501 256.7157 103.2123 15.14005099 67568
LEMUR-2-THERMORAPTOR    
1 63354U 25061D   26167.87666054  .00003967  00000+0  22096-3 0  9995
2 63354  97.5695 143.9426 0017207 255.5283 104.4039 15.14085449 67566
LEMUR-2-NEUROSPICY      
1 63355U 25061E   26168.17877345  .00002888  00000+0  16148-3 0  9999
2 63355  97.5624 143.8691 0014987 258.1535 101.8015 15.14201681 67612
LEMUR-2-TILLINFINITY    
1 63356U 25061F   26167.88375176  .00004015  00000+0  21930-3 0  9991
2 63356  97.5605 143.8662 0016359 246.1342 113.8176 15.14786191 67590
LEMUR-2-KREMPEL-BRO1    
1 63357U 25061G   26168.18751425  .00002988  00000+0  16502-3 0  9997
2 63357  97.5610 144.0844 0016946 246.4004 113.5449 15.14593506 67633
LEMUR-2-LANGER2SPACE    
1 63358U 25061H   26168.21402080  .00003666  00000+0  20347-3 0  9998
2 63358  97.5614 143.9249 0014955 256.2562 103.7005 15.14289674 67627
LEMUR-2-BALTO           
1 63395U 25052BH  26167.98659432  .00005033  00000+0  40835-3 0  9991
2 63395  97.6898  61.5973 0006908  58.2483 301.9413 15.00085525 68735
LEMUR-2-KRISH           
1 64561U 25135AK  26167.87372186  .00004747  00000+0  42605-3 0  9993
2 64561  97.7754 282.7517 0001766  99.8626 260.2794 14.96207333 53876
LEMUR-2-HUBBLE-4        
1 64565U 25135AP  26168.06936850  .00001482  00000+0  14733-3 0  9997
2 64565  97.7699 281.9767 0000965 308.5326  51.5807 14.93197861 53858
LEMUR-2-SEJONG-2        
1 64586U 25135BL  26168.17121659  .00003276  00000+0  29199-3 0  9990
2 64586  97.7689 283.1920 0003847 339.0072  21.0991 14.96696334 53942
LEMUR-2-HUBBLE-5        
1 64840U 25135BT  26167.88956863  .00001060  00000+0  10441-3 0  9992
2 64840  97.7719 282.4325 0005122 355.2273   4.8897 14.94135511 53869
LEMUR-2-KARENDARRELL    
1 64841U 25135BU  26168.05147488  .00006560  00000+0  53020-3 0  9998
2 64841  97.7684 284.2593 0009669 202.5336 157.5464 15.00109281 53995
LEMUR-2-LUCILLE-ROSE    
1 65403U 25135BV  26167.55827755  .00005298  00000+0  42864-3 0  9990
2 65403  97.7772 283.7859 0011184 285.3047  74.6940 15.00148096 48540
LEMUR-2-AFFIE-WAUWIE    
1 66295U 25248C   26167.13988088  .00013448  00000+0  50637-3 0  9999
2 66295  45.3895 120.6606 0007520  77.2231 282.9498 15.27115158 34433
LEMUR-2-DEANANDMAEVE    
1 66678U 25276N   26167.72208899  .00005056  00000+0  23971-3 0  9992
2 66678  97.4213 241.2053 0005777  16.2444 343.8975 15.19728729 30345
LEMUR-2-STAS-GORBUK     
1 66686U 25276W   26167.93406161  .00004827  00000+0  23131-3 0  9999
2 66686  97.4248 241.4689 0005109  16.5545 343.5856 15.19380098 30374
LEMUR-2-TEODOR          
1 66768U 25276DG  26168.11547992  .00004257  00000+0  19479-3 0  9996
2 66768  97.4154 241.8833 0002137 117.0255 243.1199 15.21049530 30437
LEMUR-2-LAILA           
1 66776U 25276DQ  26168.08940683  .00004799  00000+0  21779-3 0  9992
2 66776  97.4175 241.9784 0002233 135.7171 224.4244 15.21270412 30434
LEMUR-2-CELIJO-SB-PK    
1 66781U 25276DW  26168.10327791  .00004603  00000+0  37465-3 0  9993
2 66781  97.5252 238.8839 0008740 132.8424 227.3535 14.99975195 22611
LEMUR-2-FINNIAN         
1 66782U 25276DX  26167.94689942  .00005853  00000+0  47012-3 0  9991
2 66782  97.5287 238.9457 0008870  90.1205 270.1035 15.00376124 19969
